{
  "links" : {
    "next" : "https://api.nasa.gov/neo/rest/v1/feed?start_date=1996-02-23&end_date=1996-02-23&detailed=true&api_key=t0TVs3DtDT2H8Oy2Zy8m2eVrNsAVKAexjcZXUckd",
    "prev" : "https://api.nasa.gov/neo/rest/v1/feed?start_date=1996-02-21&end_date=1996-02-21&detailed=true&api_key=t0TVs3DtDT2H8Oy2Zy8m2eVrNsAVKAexjcZXUckd",
    "self" : "https://api.nasa.gov/neo/rest/v1/feed?start_date=1996-02-22&end_date=1996-02-22&detailed=true&api_key=t0TVs3DtDT2H8Oy2Zy8m2eVrNsAVKAexjcZXUckd"
  },
  "element_count" : 5,
  "near_earth_objects" : {
    "1996-02-22" : [ {
      "links" : {
        "self" : "https://api.nasa.gov/neo/rest/v1/neo/3174193?api_key=t0TVs3DtDT2H8Oy2Zy8m2eVrNsAVKAexjcZXUckd"
      },
      "neo_reference_id" : "3174193",
      "name" : "(2004 BD68)",
      "nasa_jpl_url" : "http://ssd.jpl.nasa.gov/sbdb.cgi?sstr=3174193",
      "absolute_magnitude_h" : 18.7,
      "estimated_diameter" : {
        "kilometers" : {
          "estimated_diameter_min" : 0.4836764882,
          "estimated_diameter_max" : 1.0815335068
        },
        "meters" : {
          "estimated_diameter_min" : 483.6764882185,
          "estimated_diameter_max" : 1081.533506775
        },
        "miles" : {
          "estimated_diameter_min" : 0.3005425432,
          "estimated_diameter_max" : 0.6720335566
        },
        "feet" : {
          "estimated_diameter_min" : 1586.8651696069,
          "estimated_diameter_max" : 3548.3383903678
        }
      },
      "is_potentially_hazardous_asteroid" : false,
      "close_approach_data" : [ {
        "close_approach_date" : "1996-02-22",
        "epoch_date_close_approach" : 824976000000,
        "relative_velocity" : {
          "kilometers_per_second" : "40.1655112308",
          "kilometers_per_hour" : "144595.840431037",
          "miles_per_hour" : "89846.2320722741"
        },
        "miss_distance" : {
          "astronomical" : "0.4028079773",
          "lunar" : "156.6923065186",
          "kilometers" : "60259216",
          "miles" : "37443340"
        },
        "orbiting_body" : "Earth"
      } ],
      "orbital_data" : {
        "orbit_id" : "26",
        "orbit_determination_date" : "2017-03-02 06:47:03",
        "orbit_uncertainty" : "0",
        "minimum_orbit_intersection" : ".197366",
        "jupiter_tisserand_invariant" : "3.374",
        "epoch_osculation" : "2457800.5",
        "eccentricity" : ".8302167165406684",
        "semi_major_axis" : "1.900342620602818",
        "inclination" : "19.31015899141281",
        "ascending_node_longitude" : "172.1581230484826",
        "orbital_period" : "956.8553512056678",
        "perihelion_distance" : ".3226464098236573",
        "perihelion_argument" : "203.7649019835784",
        "aphelion_distance" : "3.478038831381979",
        "perihelion_time" : "2457759.444343975618",
        "mean_anomaly" : "15.44646863306362",
        "mean_motion" : ".3762324154287152",
        "equinox" : "J2000"
      }
    }, {
      "links" : {
        "self" : "https://api.nasa.gov/neo/rest/v1/neo/3402642?api_key=t0TVs3DtDT2H8Oy2Zy8m2eVrNsAVKAexjcZXUckd"
      },
      "neo_reference_id" : "3402642",
      "name" : "(2008 CE119)",
      "nasa_jpl_url" : "http://ssd.jpl.nasa.gov/sbdb.cgi?sstr=3402642",
      "absolute_magnitude_h" : 25.7,
      "estimated_diameter" : {
        "kilometers" : {
          "estimated_diameter_min" : 0.0192555078,
          "estimated_diameter_max" : 0.0430566244
        },
        "meters" : {
          "estimated_diameter_min" : 19.2555078188,
          "estimated_diameter_max" : 43.0566244241
        },
        "miles" : {
          "estimated_diameter_min" : 0.0119648141,
          "estimated_diameter_max" : 0.0267541378
        },
        "feet" : {
          "estimated_diameter_min" : 63.1742402722,
          "estimated_diameter_max" : 141.2618956756
        }
      },
      "is_potentially_hazardous_asteroid" : false,
      "close_approach_data" : [ {
        "close_approach_date" : "1996-02-22",
        "epoch_date_close_approach" : 824976000000,
        "relative_velocity" : {
          "kilometers_per_second" : "9.0104881074",
          "kilometers_per_hour" : "32437.7571865354",
          "miles_per_hour" : "20155.5608473781"
        },
        "miss_distance" : {
          "astronomical" : "0.1617575396",
          "lunar" : "62.9236831665",
          "kilometers" : "24198584",
          "miles" : "15036303"
        },
        "orbiting_body" : "Earth"
      } ],
      "orbital_data" : {
        "orbit_id" : "16",
        "orbit_determination_date" : "2017-07-31 10:27:58",
        "orbit_uncertainty" : "0",
        "minimum_orbit_intersection" : ".0483196",
        "jupiter_tisserand_invariant" : "5.244",
        "epoch_osculation" : "2458000.5",
        "eccentricity" : ".1766318721908845",
        "semi_major_axis" : "1.208906796970771",
        "inclination" : "7.724689405886892",
        "ascending_node_longitude" : "147.2825544861749",
        "orbital_period" : "485.4982355933009",
        "perihelion_distance" : ".9953753261175382",
        "perihelion_argument" : "50.19779903325218",
        "aphelion_distance" : "1.422438267824004",
        "perihelion_time" : "2457965.868913473748",
        "mean_anomaly" : "25.67916881142787",
        "mean_motion" : ".7415062993175736",
        "equinox" : "J2000"
      }
    }, {
      "links" : {
        "self" : "https://api.nasa.gov/neo/rest/v1/neo/3552578?api_key=t0TVs3DtDT2H8Oy2Zy8m2eVrNsAVKAexjcZXUckd"
      },
      "neo_reference_id" : "3552578",
      "name" : "(2010 WR7)",
      "nasa_jpl_url" : "http://ssd.jpl.nasa.gov/sbdb.cgi?sstr=3552578",
      "absolute_magnitude_h" : 23.5,
      "estimated_diameter" : {
        "kilometers" : {
          "estimated_diameter_min" : 0.0530340723,
          "estimated_diameter_max" : 0.1185877909
        },
        "meters" : {
          "estimated_diameter_min" : 53.0340723319,
          "estimated_diameter_max" : 118.5877908577
        },
        "miles" : {
          "estimated_diameter_min" : 0.0329538346,
          "estimated_diameter_max" : 0.0736870142
        },
        "feet" : {
          "estimated_diameter_min" : 173.9963058693,
          "estimated_diameter_max" : 389.0675677576
        }
      },
      "is_potentially_hazardous_asteroid" : false,
      "close_approach_data" : [ {
        "close_approach_date" : "1996-02-22",
        "epoch_date_close_approach" : 824976000000,
        "relative_velocity" : {
          "kilometers_per_second" : "6.368218127",
          "kilometers_per_hour" : "22925.5852570614",
          "miles_per_hour" : "14245.0671282002"
        },
        "miss_distance" : {
          "astronomical" : "0.1769183579",
          "lunar" : "68.8212432861",
          "kilometers" : "26466610",
          "miles" : "16445589"
        },
        "orbiting_body" : "Earth"
      } ],
      "orbital_data" : {
        "orbit_id" : "14",
        "orbit_determination_date" : "2017-04-06 08:55:34",
        "orbit_uncertainty" : "4",
        "minimum_orbit_intersection" : ".0252684",
        "jupiter_tisserand_invariant" : "5.845",
        "epoch_osculation" : "2458000.5",
        "eccentricity" : ".2353537364421963",
        "semi_major_axis" : "1.046237996657044",
        "inclination" : "1.562718008792176",
        "ascending_node_longitude" : "20.45385430902011",
        "orbital_period" : "390.8806389216177",
        "perihelion_distance" : ".8000019749360107",
        "perihelion_argument" : "159.1427095913275",
        "aphelion_distance" : "1.292474018378077",
        "perihelion_time" : "2457969.791802334012",
        "mean_anomaly" : "28.28216611151354",
        "mean_motion" : ".920997266565024",
        "equinox" : "J2000"
      }
    } ]
  }
}